[{"OBJECT_NAME":"STARLINK-30788","OBJECT_ID":"2023-166K","EPOCH":"2026-03-09T17:39:05.398560","MEAN_MOTION":15.30184285,"ECCENTRICITY":0.00012416,"INCLINATION":53.1605,"RA_OF_ASC_NODE":219.5892,"ARG_OF_PERICENTER":86.9823,"MEAN_ANOMALY":273.132,"EPHEMERIS_TYPE":0,"CLASSIFICATION_TYPE":"U","NORAD_CAT_ID":58159,"ELEMENT_SET_NO":999,"REV_AT_EPOCH":13303,"BSTAR":1.7382716e-5,"MEAN_MOTION_DOT":1.55e-6,"MEAN_MOTION_DDOT":0},{"OBJECT_NAME":"SCS-01 M","OBJECT_ID":"2025-100M","EPOCH":"2026-03-09T23:50:15.541152","MEAN_MOTION":15.31880861,"ECCENTRICITY":0.00078021,"INCLINATION":97.3725,"RA_OF_ASC_NODE":145.6908,"ARG_OF_PERICENTER":292.3826,"MEAN_ANOMALY":67.6588,"EPHEMERIS_TYPE":0,"CLASSIFICATION_TYPE":"U","NORAD_CAT_ID":63993,"ELEMENT_SET_NO":999,"REV_AT_EPOCH":4565,"BSTAR":0.0012010051,"MEAN_MOTION_DOT":0.00037061,"MEAN_MOTION_DDOT":0}]
